{
  "norad_id": 62051,
  "name": "STARLINK-32496",
  "history": [
    {
      "epoch": "2026-03-28T20:57:49.889376",
      "apogee_km": 483.70568406645725,
      "perigee_km": 482.27582504240854,
      "latitude_deg": 42.12983022254167,
      "longitude_deg": 108.95543263992295,
      "semi_major_axis_km": 6861.127754554433,
      "eccentricity": 0.0001042,
      "inclination_deg": 42.9976,
      "raan_deg": 155.4075,
      "arg_perigee_deg": 267.576,
      "mean_anomaly_deg": 92.4973,
      "mean_motion_rev_day": 15.27599484
    }
  ]
}