{"fetched_at":"2026-03-29T16:36:15Z","count":15609,"tles":[{"name":"STARLINK-32496","line1":"1 62051U 24216V   26087.87349409  .00029381  00000+0  10723-2 0  9993","line2":"2 62051  42.9976 155.4075 0001042 267.5760  92.4973 15.27599484 76720","category":"Starlink"}]}